[{"OBJECT_NAME":"SMDC ONE 2.3","OBJECT_ID":"2013-072N","EPOCH":"2026-03-09T22:54:00.802944","MEAN_MOTION":15.49806545,"ECCENTRICITY":0.00654985,"INCLINATION":120.4558,"RA_OF_ASC_NODE":92.3724,"ARG_OF_PERICENTER":299.1747,"MEAN_ANOMALY":60.2799,"EPHEMERIS_TYPE":0,"CLASSIFICATION_TYPE":"U","NORAD_CAT_ID":39474,"ELEMENT_SET_NO":999,"REV_AT_EPOCH":10213,"BSTAR":0.0010211668,"MEAN_MOTION_DOT":0.00062901,"MEAN_MOTION_DDOT":0},{"OBJECT_NAME":"STARLINK-36673","OBJECT_ID":"2026-022N","EPOCH":"2026-03-09T22:00:01.999584","MEAN_MOTION":15.68090398,"ECCENTRICITY":0.00015368,"INCLINATION":97.2847,"RA_OF_ASC_NODE":102.9137,"ARG_OF_PERICENTER":67.9373,"MEAN_ANOMALY":350.2216,"EPHEMERIS_TYPE":0,"CLASSIFICATION_TYPE":"U","NORAD_CAT_ID":67660,"ELEMENT_SET_NO":999,"REV_AT_EPOCH":608,"BSTAR":-0.019532863,"MEAN_MOTION_DOT":-0.0191887,"MEAN_MOTION_DDOT":0}]
